{"type": "FeatureCollection", "features": [ {"type": "Feature", "properties": {"norad_id": 66630, "name": "STARLINK-35949", "group": "last-30-days", "lat": 14.109677365280353, "lon": -32.717377592228964, "alt_km": 418.74197270668446, "timestamp": "2025-12-18T19:29:51.286508+00:00", "meta": {"OBJECT_NAME": "STARLINK-35949", "OBJECT_ID": "2025-271P", "EPOCH": "2025-12-18T06:24:45.768096", "MEAN_MOTION": 15.490189, "ECCENTRICITY": 0.0001458, "INCLINATION": 53.1598, "RA_OF_ASC_NODE": 160.7516, "ARG_OF_PERICENTER": 55.1565, "MEAN_ANOMALY": 304.9581, "EPHEMERIS_TYPE": 0, "CLASSIFICATION_TYPE": "U", "NORAD_CAT_ID": 66630, "ELEMENT_SET_NO": 999, "REV_AT_EPOCH": 506, "BSTAR": 3.3096693e-05, "MEAN_MOTION_DOT": 1.375e-05, "MEAN_MOTION_DDOT": 0}, "tle": {"line1": "1 66630U 25271P   25352.26719639  .00001375  00000+0  33097-4 0  9999", "line2": "2 66630  53.1598 160.7516 0001458  55.1565 304.9581 15.49018900  5063"}}, "geometry": {"type": "Point", "coordinates": [-32.717377592228964, 14.109677365280353]}}, {"type": "Feature", "properties": {"norad_id": 66631, "name": "STARLINK-35965", "group": "last-30-days", "lat": 12.100987025511726, "lon": -31.10894829484211, "alt_km": 417.4225258913075, "timestamp": "2025-12-18T19:29:51.286521+00:00", "meta": {"OBJECT_NAME": "STARLINK-35965", "OBJECT_ID": "2025-271Q", "EPOCH": "2025-12-18T06:24:13.538304", "MEAN_MOTION": 15.49246739, "ECCENTRICITY": 9.349e-05, "INCLINATION": 53.159, "RA_OF_ASC_NODE": 160.7505, "ARG_OF_PERICENTER": 140.9892, "MEAN_ANOMALY": 219.1185, "EPHEMERIS_TYPE": 0, "CLASSIFICATION_TYPE": "U", "NORAD_CAT_ID": 66631, "ELEMENT_SET_NO": 999, "REV_AT_EPOCH": 506, "BSTAR": 0.00066041772, "MEAN_MOTION_DOT": 0.00036372, "MEAN_MOTION_DDOT": 0}, "tle": {"line1": "1 66631U 25271Q   25352.26682336  .00036372  00000+0  66042-3 0  9993", "line2": "2 66631  53.1590 160.7505 0000934 140.9892 219.1185 15.49246739  5068"}}, "geometry": {"type": "Point", "coordinates": [-31.10894829484211, 12.100987025511726]}}, {"type": "Feature", "properties": {"norad_id": 66632, "name": "STARLINK-35973", "group": "last-30-days", "lat": 21.687049336788604, "lon": 175.75996193313847, "alt_km": 444.65905059106717, "timestamp": "2025-12-18T19:29:51.286531+00:00", "meta": {"OBJECT_NAME": "STARLINK-35973", "OBJECT_ID": "2025-271R", "EPOCH": "2025-12-18T06:00:02.999808", "MEAN_MOTION": 15.3958707, "ECCENTRICITY": 0.00013305, "INCLINATION": 53.1587, "RA_OF_ASC_NODE": 161.0631, "ARG_OF_PERICENTER": 101.2168, "MEAN_ANOMALY": 47.6724, "EPHEMERIS_TYPE": 0, "CLASSIFICATION_TYPE": "U", "NORAD_CAT_ID": 66632, "ELEMENT_SET_NO": 999, "REV_AT_EPOCH": 507, "BSTAR": 0.0010517925, "MEAN_MOTION_DOT": 0.00041857, "MEAN_MOTION_DDOT": 0}, "tle": {"line1": "1 66632U 25271R   25352.25003472  .00041857  00000+0  10518-2 0  9991", "line2": "2 66632  53.1587 161.0631 0001330 101.2168  47.6724 15.39587070  5075"}}, "geometry": {"type": "Point", "coordinates": [175.75996193313847, 21.687049336788604]}}, {"type": "Feature", "properties": {"norad_id": 66633, "name": "STARLINK-35948", "group": "last-30-days", "lat": 23.083387916829484, "lon": 177.04284698403194, "alt_km": 444.3258078482322, "timestamp": "2025-12-18T19:29:51.286543+00:00", "meta": {"OBJECT_NAME": "STARLINK-35948", "OBJECT_ID": "2025-271S", "EPOCH": "2025-12-18T06:00:02.999808", "MEAN_MOTION": 15.39594546, "ECCENTRICITY": 0.00010731, "INCLINATION": 53.1588, "RA_OF_ASC_NODE": 161.0585, "ARG_OF_PERICENTER": 91.5932, "MEAN_ANOMALY": 59.1124, "EPHEMERIS_TYPE": 0, "CLASSIFICATION_TYPE": "U", "NORAD_CAT_ID": 66633, "ELEMENT_SET_NO": 999, "REV_AT_EPOCH": 512, "BSTAR": 0.0010073974, "MEAN_MOTION_DOT": 0.00040074, "MEAN_MOTION_DDOT": 0}, "tle": {"line1": "1 66633U 25271S   25352.25003472  .00040074  00000+0  10074-2 0  9999", "line2": "2 66633  53.1588 161.0585 0001073  91.5932  59.1124 15.39594546  5123"}}, "geometry": {"type": "Point", "coordinates": [177.04284698403194, 23.083387916829484]}}, {"type": "Feature", "properties": {"norad_id": 66634, "name": "STARLINK-35967", "group": "last-30-days", "lat": 41.025554752798776, "lon": -160.92882263512286, "alt_km": 441.2661019219522, "timestamp": "2025-12-18T19:29:51.286553+00:00", "meta": {"OBJECT_NAME": "STARLINK-35967", "OBJECT_ID": "2025-271T", "EPOCH": "2025-12-18T06:00:02.999808", "MEAN_MOTION": 15.39605042, "ECCENTRICITY": 6.868e-05, "INCLINATION": 53.1598, "RA_OF_ASC_NODE": 161.0058, "ARG_OF_PERICENTER": 68.639, "MEAN_ANOMALY": 107.7771, "EPHEMERIS_TYPE": 0, "CLASSIFICATION_TYPE": "U", "NORAD_CAT_ID": 66634, "ELEMENT_SET_NO": 999, "REV_AT_EPOCH": 506, "BSTAR": 0.0012204947, "MEAN_MOTION_DOT": 0.00048707, "MEAN_MOTION_DDOT": 0}, "tle": {"line1": "1 66634U 25271T   25352.25003472  .00048707  00000+0  12205-2 0  9999", "line2": "2 66634  53.1598 161.0058 0000686  68.6390 107.7771 15.39605042  5067"}}, "geometry": {"type": "Point", "coordinates": [-160.92882263512286, 41.025554752798776]}}, {"type": "Feature", "properties": {"norad_id": 66635, "name": "STARLINK-35955", "group": "last-30-days", "lat": 50.020186466702526, "lon": -85.13979227222143, "alt_km": 439.6449121922833, "timestamp": "2025-12-18T19:29:51.286563+00:00", "meta": {"OBJECT_NAME": "STARLINK-35955", "OBJECT_ID": "2025-271U", "EPOCH": "2025-12-18T06:00:02.999808", "MEAN_MOTION": 15.39587477, "ECCENTRICITY": 0.00012739, "INCLINATION": 53.1602, "RA_OF_ASC_NODE": 160.9051, "ARG_OF_PERICENTER": 87.6269, "MEAN_ANOMALY": 140.3483, "EPHEMERIS_TYPE": 0, "CLASSIFICATION_TYPE": "U", "NORAD_CAT_ID": 66635, "ELEMENT_SET_NO": 999, "REV_AT_EPOCH": 512, "BSTAR": 0.001008587, "MEAN_MOTION_DOT": 0.00040112, "MEAN_MOTION_DDOT": 0}, "tle": {"line1": "1 66635U 25271U   25352.25003472  .00040112  00000+0  10086-2 0  9997", "line2": "2 66635  53.1602 160.9051 0001273  87.6269 140.3483 15.39587477  5125"}}, "geometry": {"type": "Point", "coordinates": [-85.13979227222143, 50.020186466702526]}}, {"type": "Feature", "properties": {"norad_id": 66636, "name": "STARLINK-35968", "group": "last-30-days", "lat": 52.1756053205158, "lon": -126.75124254385113, "alt_km": 439.80510184902505, "timestamp": "2025-12-18T19:29:51.286578+00:00", "meta": {"OBJECT_NAME": "STARLINK-35968", "OBJECT_ID": "2025-271V", "EPOCH": "2025-12-18T06:00:02.999808", "MEAN_MOTION": 15.39599483, "ECCENTRICITY": 5.884e-05, "INCLINATION": 53.1602, "RA_OF_ASC_NODE": 160.9554, "ARG_OF_PERICENTER": 111.9805, "MEAN_ANOMALY": 90.13, "EPHEMERIS_TYPE": 0, "CLASSIFICATION_TYPE": "U", "NORAD_CAT_ID": 66636, "ELEMENT_SET_NO": 999, "REV_AT_EPOCH": 512, "BSTAR": 0.0010081873, "MEAN_MOTION_DOT": 0.00040112, "MEAN_MOTION_DDOT": 0}, "tle": {"line1": "1 66636U 25271V   25352.25003472  .00040112  00000+0  10082-2 0  9994", "line2": "2 66636  53.1602 160.9554 0000588 111.9805  90.1300 15.39599483  5129"}}, "geometry": {"type": "Point", "coordinates": [-126.75124254385113, 52.1756053205158]}}, {"type": "Feature", "properties": {"norad_id": 66637, "name": "STARLINK-35953", "group": "last-30-days", "lat": 36.28537098407515, "lon": -55.1930246858446, "alt_km": 444.4027269324597, "timestamp": "2025-12-18T19:29:51.286589+00:00", "meta": {"OBJECT_NAME": "STARLINK-35953", "OBJECT_ID": "2025-271W", "EPOCH": "2025-12-18T06:00:02.999808", "MEAN_MOTION": 15.41379708, "ECCENTRICITY": 0.00013679, "INCLINATION": 53.1602, "RA_OF_ASC_NODE": 160.8552, "ARG_OF_PERICENTER": 88.0403, "MEAN_ANOMALY": 164.5261, "EPHEMERIS_TYPE": 0, "CLASSIFICATION_TYPE": "U", "NORAD_CAT_ID": 66637, "ELEMENT_SET_NO": 999, "REV_AT_EPOCH": 512, "BSTAR": -0.056432563, "MEAN_MOTION_DOT": -0.02116746, "MEAN_MOTION_DDOT": 0}, "tle": {"line1": "1 66637U 25271W   25352.25003472 -.02116746  00000+0 -56433-1 0  9995", "line2": "2 66637  53.1602 160.8552 0001367  88.0403 164.5261 15.41379708  5122"}}, "geometry": {"type": "Point", "coordinates": [-55.1930246858446, 36.28537098407515]}}, {"type": "Feature", "properties": {"norad_id": 66638, "name": "STARLINK-35972", "group": "last-30-days", "lat": 3.731284121258317, "lon": -24.684591048591404, "alt_km": 422.4667914623842, "timestamp": "2025-12-18T19:29:51.286598+00:00", "meta": {"OBJECT_NAME": "STARLINK-35972", "OBJECT_ID": "2025-271X", "EPOCH": "2025-12-18T06:21:01.001088", "MEAN_MOTION": 15.48382768, "ECCENTRICITY": 0.00014798, "INCLINATION": 53.159, "RA_OF_ASC_NODE": 160.7342, "ARG_OF_PERICENTER": 276.5243, "MEAN_ANOMALY": 83.5597, "EPHEMERIS_TYPE": 0, "CLASSIFICATION_TYPE": "U", "NORAD_CAT_ID": 66638, "ELEMENT_SET_NO": 999, "REV_AT_EPOCH": 506, "BSTAR": -0.0021789139, "MEAN_MOTION_DOT": -0.00116026, "MEAN_MOTION_DDOT": 0}, "tle": {"line1": "1 66638U 25271X   25352.26459492 -.00116026  00000+0 -21789-2 0  9990", "line2": "2 66638  53.1590 160.7342 0001479 276.5243  83.5597 15.48382768  5067"}}, "geometry": {"type": "Point", "coordinates": [-24.684591048591404, 3.731284121258317]}}, {"type": "Feature", "properties": {"norad_id": 66639, "name": "STARLINK-35908", "group": "last-30-days", "lat": -0.393399645320168, "lon": -21.597722114693177, "alt_km": 419.54959304120985, "timestamp": "2025-12-18T19:29:51.286608+00:00", "meta": {"OBJECT_NAME": "STARLINK-35908", "OBJECT_ID": "2025-271Y", "EPOCH": "2025-12-18T06:20:13.839648", "MEAN_MOTION": 15.49333945, "ECCENTRICITY": 7.991e-05, "INCLINATION": 53.1597, "RA_OF_ASC_NODE": 160.7302, "ARG_OF_PERICENTER": 80.4676, "MEAN_ANOMALY": 279.6424, "EPHEMERIS_TYPE": 0, "CLASSIFICATION_TYPE": "U", "NORAD_CAT_ID": 66639, "ELEMENT_SET_NO": 999, "REV_AT_EPOCH": 506, "BSTAR": 0.00088418883, "MEAN_MOTION_DOT": 0.00049079, "MEAN_MOTION_DDOT": 0}, "tle": {"line1": "1 66639U 25271Y   25352.26404907  .00049079  00000+0  88419-3 0  9997", "line2": "2 66639  53.1597 160.7302 0000799  80.4676 279.6424 15.49333945  5068"}}, "geometry": {"type": "Point", "coordinates": [-21.597722114693177, -0.393399645320168]}}]}